EUTELSAT 9B             
1 41310U 16005A   26073.57028213  .00000061  00000+0  00000+0 0  9992
2 41310   0.0468  69.4170 0004143 263.4344  53.6112  1.00272915 37166
EUTELSAT 65 WEST A      
1 41382U 16014A   26073.55554873 -.00000277  00000+0  00000+0 0  9995
2 41382   0.0599  18.1531 0002203 334.7690 314.0323  1.00273963 36580
EUTELSAT 117 WEST B     
1 41589U 16038B   26073.30322345 -.00000012  00000+0  00000+0 0  9997
2 41589   0.0416   6.7202 0000259 285.2785 232.0791  1.00272184 35715
EUTELSAT 172B           
1 42741U 17029B   26073.63447617 -.00000007  00000+0  00000+0 0  9999
2 42741   0.0194 155.4634 0000175 320.1784  97.0024  1.00272041 32790
EUTELSAT 7C             
1 44334U 19034B   26073.36016957  .00000047  00000+0  00000+0 0  9999
2 44334   0.0713 177.5871 0003266 166.6147 324.3914  1.00272124  5881
EUTELSAT 5 WEST B       
1 44624U 19067A   26073.35357726 -.00000043  00000+0  00000+0 0  9995
2 44624   0.0796 323.2366 0003188  41.8374 289.1747  1.00271709 23488
EUTELSAT KONNECT        
1 45027U 20005B   26073.35600394  .00000049  00000+0  00000+0 0  9994
2 45027   0.0668  97.4929 0001046 221.3319 348.5168  1.00272524 23386
EUTELSAT QUANTUM        
1 49056U 21069B   26073.57790882  .00000125  00000+0  00000+0 0  9992
2 49056   0.0257 278.4563 0002587  76.0957  73.3792  1.00272287 16974
EUTELSAT KONNECT VHTS   
1 53765U 22110A   26072.28543735  .00000017  00000+0  00000+0 0  9992
2 53765   0.0582 103.6406 0002797 226.3283 306.3955  1.00270242  5873
EUTELSAT HOTBIRD 13F    
1 54048U 22134A   26072.90322635  .00000086  00000+0  00000+0 0  9992
2 54048   0.0591 293.6376 0002062  73.4907 142.5494  1.00271959 12426
EUTELSAT HOTBIRD 13G    
1 54225U 22146A   26073.35713060  .00000086  00000+0  00000+0 0  9998
2 54225   0.0479 233.5588 0001951 300.9113 139.0539  1.00271144  6519
EUTELSAT 10B            
1 54259U 22157A   26073.57045546  .00000067  00000+0  00000+0 0  9997
2 54259   0.0560 102.3330 0002138   5.0477 280.1525  1.00269883 12077
EUTELSAT 36D            
1 59346U 24059A   26073.57556882  .00000155  00000+0  00000+0 0  9990
2 59346   0.0102 186.6351 0000262 284.5204 304.0787  1.00271610  7191
