[{"OBJECT_NAME":"EUTELSAT 9B","OBJECT_ID":"2016-005A","EPOCH":"2026-03-14T13:41:12.376032","MEAN_MOTION":1.00272915,"ECCENTRICITY":0.00041437,"INCLINATION":0.0468,"RA_OF_ASC_NODE":69.417,"ARG_OF_PERICENTER":263.4344,"MEAN_ANOMALY":53.6112,"EPHEMERIS_TYPE":0,"CLASSIFICATION_TYPE":"U","NORAD_CAT_ID":41310,"ELEMENT_SET_NO":999,"REV_AT_EPOCH":3716,"BSTAR":0,"MEAN_MOTION_DOT":6.1e-7,"MEAN_MOTION_DDOT":0},{"OBJECT_NAME":"EUTELSAT 65 WEST A","OBJECT_ID":"2016-014A","EPOCH":"2026-03-14T13:19:59.410272","MEAN_MOTION":1.00273963,"ECCENTRICITY":0.00022032,"INCLINATION":0.0599,"RA_OF_ASC_NODE":18.1531,"ARG_OF_PERICENTER":334.769,"MEAN_ANOMALY":314.0323,"EPHEMERIS_TYPE":0,"CLASSIFICATION_TYPE":"U","NORAD_CAT_ID":41382,"ELEMENT_SET_NO":999,"REV_AT_EPOCH":3658,"BSTAR":0,"MEAN_MOTION_DOT":-2.77e-6,"MEAN_MOTION_DDOT":0},{"OBJECT_NAME":"EUTELSAT 117 WEST B","OBJECT_ID":"2016-038B","EPOCH":"2026-03-14T07:16:38.506080","MEAN_MOTION":1.00272184,"ECCENTRICITY":2.59e-5,"INCLINATION":0.0416,"RA_OF_ASC_NODE":6.7202,"ARG_OF_PERICENTER":285.2785,"MEAN_ANOMALY":232.0791,"EPHEMERIS_TYPE":0,"CLASSIFICATION_TYPE":"U","NORAD_CAT_ID":41589,"ELEMENT_SET_NO":999,"REV_AT_EPOCH":3571,"BSTAR":0,"MEAN_MOTION_DOT":-1.2e-7,"MEAN_MOTION_DDOT":0},{"OBJECT_NAME":"EUTELSAT 172B","OBJECT_ID":"2017-029B","EPOCH":"2026-03-14T15:13:38.741088","MEAN_MOTION":1.00272041,"ECCENTRICITY":1.756e-5,"INCLINATION":0.0194,"RA_OF_ASC_NODE":155.4634,"ARG_OF_PERICENTER":320.1784,"MEAN_ANOMALY":97.0024,"EPHEMERIS_TYPE":0,"CLASSIFICATION_TYPE":"U","NORAD_CAT_ID":42741,"ELEMENT_SET_NO":999,"REV_AT_EPOCH":3279,"BSTAR":0,"MEAN_MOTION_DOT":-7.0e-8,"MEAN_MOTION_DDOT":0},{"OBJECT_NAME":"EUTELSAT 7C","OBJECT_ID":"2019-034B","EPOCH":"2026-03-14T08:38:38.650848","MEAN_MOTION":1.00272124,"ECCENTRICITY":0.00032667,"INCLINATION":0.0713,"RA_OF_ASC_NODE":177.5871,"ARG_OF_PERICENTER":166.6147,"MEAN_ANOMALY":324.3914,"EPHEMERIS_TYPE":0,"CLASSIFICATION_TYPE":"U","NORAD_CAT_ID":44334,"ELEMENT_SET_NO":999,"REV_AT_EPOCH":588,"BSTAR":0,"MEAN_MOTION_DOT":4.7e-7,"MEAN_MOTION_DDOT":0},{"OBJECT_NAME":"EUTELSAT 5 WEST B","OBJECT_ID":"2019-067A","EPOCH":"2026-03-14T08:29:09.075264","MEAN_MOTION":1.00271709,"ECCENTRICITY":0.00031885,"INCLINATION":0.0796,"RA_OF_ASC_NODE":323.2366,"ARG_OF_PERICENTER":41.8374,"MEAN_ANOMALY":289.1747,"EPHEMERIS_TYPE":0,"CLASSIFICATION_TYPE":"U","NORAD_CAT_ID":44624,"ELEMENT_SET_NO":999,"REV_AT_EPOCH":2348,"BSTAR":0,"MEAN_MOTION_DOT":-4.3e-7,"MEAN_MOTION_DDOT":0},{"OBJECT_NAME":"EUTELSAT KONNECT","OBJECT_ID":"2020-005B","EPOCH":"2026-03-14T08:32:38.740416","MEAN_MOTION":1.00272524,"ECCENTRICITY":0.00010466,"INCLINATION":0.0668,"RA_OF_ASC_NODE":97.4929,"ARG_OF_PERICENTER":221.3319,"MEAN_ANOMALY":348.5168,"EPHEMERIS_TYPE":0,"CLASSIFICATION_TYPE":"U","NORAD_CAT_ID":45027,"ELEMENT_SET_NO":999,"REV_AT_EPOCH":2338,"BSTAR":0,"MEAN_MOTION_DOT":4.9e-7,"MEAN_MOTION_DDOT":0},{"OBJECT_NAME":"EUTELSAT QUANTUM","OBJECT_ID":"2021-069B","EPOCH":"2026-03-14T13:52:11.322048","MEAN_MOTION":1.00272287,"ECCENTRICITY":0.00025872,"INCLINATION":0.0257,"RA_OF_ASC_NODE":278.4563,"ARG_OF_PERICENTER":76.0957,"MEAN_ANOMALY":73.3792,"EPHEMERIS_TYPE":0,"CLASSIFICATION_TYPE":"U","NORAD_CAT_ID":49056,"ELEMENT_SET_NO":999,"REV_AT_EPOCH":1697,"BSTAR":0,"MEAN_MOTION_DOT":1.25e-6,"MEAN_MOTION_DDOT":0},{"OBJECT_NAME":"EUTELSAT KONNECT VHTS","OBJECT_ID":"2022-110A","EPOCH":"2026-03-13T06:51:01.787040","MEAN_MOTION":1.00270242,"ECCENTRICITY":0.00027978,"INCLINATION":0.0582,"RA_OF_ASC_NODE":103.6406,"ARG_OF_PERICENTER":226.3283,"MEAN_ANOMALY":306.3955,"EPHEMERIS_TYPE":0,"CLASSIFICATION_TYPE":"U","NORAD_CAT_ID":53765,"ELEMENT_SET_NO":999,"REV_AT_EPOCH":587,"BSTAR":0,"MEAN_MOTION_DOT":1.7e-7,"MEAN_MOTION_DDOT":0},{"OBJECT_NAME":"EUTELSAT HOTBIRD 13F","OBJECT_ID":"2022-134A","EPOCH":"2026-03-13T21:40:38.756640","MEAN_MOTION":1.00271959,"ECCENTRICITY":0.00020626,"INCLINATION":0.0591,"RA_OF_ASC_NODE":293.6376,"ARG_OF_PERICENTER":73.4907,"MEAN_ANOMALY":142.5494,"EPHEMERIS_TYPE":0,"CLASSIFICATION_TYPE":"U","NORAD_CAT_ID":54048,"ELEMENT_SET_NO":999,"REV_AT_EPOCH":1242,"BSTAR":0,"MEAN_MOTION_DOT":8.6e-7,"MEAN_MOTION_DDOT":0},{"OBJECT_NAME":"EUTELSAT HOTBIRD 13G","OBJECT_ID":"2022-146A","EPOCH":"2026-03-14T08:34:16.083840","MEAN_MOTION":1.00271144,"ECCENTRICITY":0.00019514,"INCLINATION":0.0479,"RA_OF_ASC_NODE":233.5588,"ARG_OF_PERICENTER":300.9113,"MEAN_ANOMALY":139.0539,"EPHEMERIS_TYPE":0,"CLASSIFICATION_TYPE":"U","NORAD_CAT_ID":54225,"ELEMENT_SET_NO":999,"REV_AT_EPOCH":651,"BSTAR":0,"MEAN_MOTION_DOT":8.6e-7,"MEAN_MOTION_DDOT":0},{"OBJECT_NAME":"EUTELSAT 10B","OBJECT_ID":"2022-157A","EPOCH":"2026-03-14T13:41:27.351744","MEAN_MOTION":1.00269883,"ECCENTRICITY":0.00021388,"INCLINATION":0.056,"RA_OF_ASC_NODE":102.333,"ARG_OF_PERICENTER":5.0477,"MEAN_ANOMALY":280.1525,"EPHEMERIS_TYPE":0,"CLASSIFICATION_TYPE":"U","NORAD_CAT_ID":54259,"ELEMENT_SET_NO":999,"REV_AT_EPOCH":1207,"BSTAR":0,"MEAN_MOTION_DOT":6.7e-7,"MEAN_MOTION_DDOT":0},{"OBJECT_NAME":"EUTELSAT 36D","OBJECT_ID":"2024-059A","EPOCH":"2026-03-14T13:48:49.146048","MEAN_MOTION":1.0027161,"ECCENTRICITY":2.629e-5,"INCLINATION":0.0102,"RA_OF_ASC_NODE":186.6351,"ARG_OF_PERICENTER":284.5204,"MEAN_ANOMALY":304.0787,"EPHEMERIS_TYPE":0,"CLASSIFICATION_TYPE":"U","NORAD_CAT_ID":59346,"ELEMENT_SET_NO":999,"REV_AT_EPOCH":719,"BSTAR":0,"MEAN_MOTION_DOT":1.55e-6,"MEAN_MOTION_DDOT":0}]
